GLOBALSTAR M035         
1 25851U 99037A   24333.56851222 -.00000012  00000+0  19458-2 0  9997
2 25851  51.9910 142.3625 0013999  22.7609   5.9899 11.04535352 74097
GLOBALSTAR M032         
1 25852U 99037B   24333.35358912 -.00000123  00000+0 -18191-2 0  9990
2 25852  51.9980 341.8937 0010630 190.6895 169.3680 11.19054906112305
GLOBALSTAR M051         
1 25853U 99037C   24333.56289464 -.00000021  00000+0  12500-2 0  9993
2 25853  51.9756 164.8725 0001079 146.5890 213.4988 11.42199490109466
GLOBALSTAR M030         
1 25854U 99037D   24333.40969705 -.00000062  00000+0  26811-3 0  9996
2 25854  51.9902 344.1141 0003894  48.9624 311.1529 11.55100238126846
GLOBALSTAR M048         
1 25872U 99041A   24333.57161500 -.00000065  00000+0  13411-3 0  9991
2 25872  51.9363  92.1260 0013540 192.8532 283.2826 11.33852216102226
GLOBALSTAR M026         
1 25873U 99041B   24333.59582869 -.00000163  00000+0 -36346-2 0  9990
2 25873  52.0012 262.3701 0001100 314.9553 216.3540 11.06826185126277
GLOBALSTAR M043         
1 25874U 99041C   24333.57363674 -.00000010  00000+0  17296-2 0  9993
2 25874  51.9372 191.7752 0012804 334.7070  37.8018 11.25688224100283
GLOBALSTAR M028         
1 25875U 99041D   24333.54254690 -.00000052  00000+0  31056-3 0  9995
2 25875  51.9635  71.3464 0062940 356.2461   3.7921 12.50570941165076
